{
  "type": "FeatureCollection",
  "features": [
    {
      "type": "Feature",
      "properties": {
        "norad_id": 66820,
        "name": "KOMPSAT-7",
        "group": "last-30-days",
        "lat": 79.31840592668087,
        "lon": 149.3679764166047,
        "alt_km": 570.6716103434437,
        "timestamp": "2025-12-03T22:42:31.477552+00:00",
        "meta_object_name": "KOMPSAT-7",
        "meta_object_id": "2025-279A",
        "meta_epoch": "2025-12-01T20:35:16.060992",
        "meta_mean_motion": 14.98310631,
        "meta_eccentricity": 0.00097501,
        "meta_inclination": 97.6394,
        "meta_ra_of_asc_node": 281.9587,
        "meta_arg_of_pericenter": 255.3935,
        "meta_mean_anomaly": 104.6207,
        "meta_ephemeris_type": 0,
        "meta_classification_type": "U",
        "meta_norad_cat_id": 66820,
        "meta_element_set_no": 999,
        "meta_rev_at_epoch": 2,
        "meta_bstar": 8.4407298e-05,
        "meta_mean_motion_dot": 9.47e-06,
        "meta_mean_motion_ddot": 0,
        "tle_line1": "1 66820U 25279A   25335.85782478  .00000947  00000+0  84407-4 0  9990",
        "tle_line2": "2 66820  97.6394 281.9587 0009750 255.3935 104.6207 14.98310631    23"
      },
      "geometry": {
        "type": "Point",
        "coordinates": [
          149.3679764166047,
          79.31840592668087
        ]
      }
    },
    {
      "type": "Feature",
      "properties": {
        "norad_id": 66877,
        "name": "DUMMY PAYLOAD",
        "group": "last-30-days",
        "lat": -0.007001533060218231,
        "lon": -89.18044295284547,
        "alt_km": 193.54443586473735,
        "timestamp": "2025-12-03T22:42:31.477561+00:00",
        "meta_object_name": "DUMMY PAYLOAD",
        "meta_object_id": "2025-282A",
        "meta_epoch": "2025-12-03T15:09:12.900384",
        "meta_mean_motion": 14.3609088,
        "meta_eccentricity": 0.0880197,
        "meta_inclination": 56.9533,
        "meta_ra_of_asc_node": 91.9802,
        "meta_arg_of_pericenter": 204.505,
        "meta_mean_anomaly": 151.1619,
        "meta_ephemeris_type": 0,
        "meta_classification_type": "U",
        "meta_norad_cat_id": 66877,
        "meta_element_set_no": 999,
        "meta_rev_at_epoch": 7,
        "meta_bstar": 0.00014053,
        "meta_mean_motion_dot": 0.00737234,
        "meta_mean_motion_ddot": 7.1566e-06,
        "tle_line1": "1 66877U 25282A   25337.63139931  .00737234  71566-5  14053-3 0  9990",
        "tle_line2": "2 66877  56.9533  91.9802 0880197 204.5050 151.1619 14.36090880    75"
      },
      "geometry": {
        "type": "Point",
        "coordinates": [
          -89.18044295284547,
          -0.007001533060218231
        ]
      }
    }
  ]
}